EUTELSAT 8 WEST B       
1 40875U 15039B   25222.39673722 -.00000064  00000+0  00000+0 0  9993
2 40875   0.0659 353.0927 0003613 146.3219 314.5181  1.00271857 36546
EUTELSAT 9B             
1 41310U 16005A   25222.32857509  .00000063  00000+0  00000+0 0  9990
2 41310   0.0226  60.4658 0001480  95.8859 289.9747  1.00270407 34999
EUTELSAT 65 WEST A      
1 41382U 16014A   25222.31401502 -.00000275  00000+0  00000+0 0  9992
2 41382   0.0528  23.7979 0002244 115.4475 227.6408  1.00270153 34411
EUTELSAT 117 WEST B     
1 41589U 16038B   25223.16028677 -.00000010  00000+0  00000+0 0  9996
2 41589   0.0172 226.4239 0000131 139.2599 254.8860  1.00270580 33596
EUTELSAT 172B           
1 42741U 17029B   25222.78932860 -.00000005  00000+0  00000+0 0  9997
2 42741   0.0228 176.1806 0000447 244.2662 355.2208  1.00271365 30601
EUTELSAT 7C             
1 44334U 19034B   25222.75665512  .00000050  00000+0  00000+0 0  9998
2 44334   0.0746 189.0979 0003523 299.9022 109.8781  1.00272749 23018
EUTELSAT 5 WEST B       
1 44624U 19067A   25223.18247353 -.00000042  00000+0  00000+0 0  9995
2 44624   0.1004 304.8046 0003196 193.8662 241.8939  1.00267592 21322
EUTELSAT KONNECT        
1 45027U 20005B   25222.82803980  .00000050  00000+0  00000+0 0  9999
2 45027   0.0589  97.7501 0001906  82.3202  84.7571  1.00271862 21208
